STARLINK-2122           
1 47400U 21005BD  26068.16379774  .00011306  00000+0  39300-3 0  9997
2 47400  53.1610  15.9494 0001349  87.1367 272.9788 15.30221389283644
TRANSPORTER-12 OBJECT AZ
1 62656U 25009AZ  26068.71026235  .00016057  00000+0  54903-3 0  9991
2 62656  97.3981 151.9913 0000987  45.3581 314.7740 15.30349724 63792
